start=new Date('2021-10-03T00:00:00.000Z').valueOf();
sats=[{"FILE":"3141323","GP_ID":"186051305","OBJECT_ID":"2020-019C","SEMIMAJOR_AXIS":"6925.358","EPHEMERIS_TYPE":"0","MEAN_ANOMALY":"288.1690","INCLINATION":"53.0522","OBJECT_TYPE":"PAYLOAD","NORAD_CAT_ID":"45362","REF_FRAME":"TEME","COUNTRY_CODE":"US","LAUNCH_DATE":"2020-03-18","MEAN_ELEMENT_THEORY":"SGP4","MEAN_MOTION":"15.06397020","REV_AT_EPOCH":"8567","ECCENTRICITY":"0.00015920","TIME_SYSTEM":"UTC","PERIOD":"95.592","MEAN_MOTION_DOT":"0.00000582","ARG_OF_PERICENTER":"71.9472","EPOCH":"2021-10-02T12:15:08.500320","APOAPSIS":"548.325","RCS_SIZE":"LARGE","MEAN_MOTION_DDOT":"0.0000000000000","SITE":"AFETR","BSTAR":"0.00005800400000","PERIAPSIS":"546.120","RA_OF_ASC_NODE":"235.3979","OBJECT_NAME":"STARLINK-1306","ELEMENT_SET_NO":"999","TLE_LINE1":"1 45362U 20019C   21275.51051505  .00000582  00000-0  58004-4 0  9997","TLE_LINE2":"2 45362  53.0522 235.3979 0001592  71.9472 288.1690 15.06397020 85677","DECAY_DATE":null,"CENTER_NAME":"EARTH","CLASSIFICATION_TYPE":"U"},{"PERIOD":"95.592","ECCENTRICITY":"0.00015680","REV_AT_EPOCH":"8609","TIME_SYSTEM":"UTC","MEAN_MOTION":"15.06400229","MEAN_ELEMENT_THEORY":"SGP4","LAUNCH_DATE":"2020-03-18","COUNTRY_CODE":"US","REF_FRAME":"TEME","OBJECT_TYPE":"PAYLOAD","INCLINATION":"53.0535","NORAD_CAT_ID":"45364","EPHEMERIS_TYPE":"0","MEAN_ANOMALY":"280.6311","SEMIMAJOR_AXIS":"6925.348","GP_ID":"186050053","FILE":"3141323","OBJECT_ID":"2020-019E","CENTER_NAME":"EARTH","CLASSIFICATION_TYPE":"U","DECAY_DATE":null,"TLE_LINE2":"2 45364  53.0535 205.2728 0001568  79.4855 280.6311 15.06400229 86092","TLE_LINE1":"1 45364U 20019E   21275.53907806  .00001574  00000-0  12453-3 0  9994","ELEMENT_SET_NO":"999","RA_OF_ASC_NODE":"205.2728","OBJECT_NAME":"STARLINK-1313","PERIAPSIS":"546.127","BSTAR":"0.00012453000000","SITE":"AFETR","MEAN_MOTION_DDOT":"0.0000000000000","RCS_SIZE":"LARGE","APOAPSIS":"548.299","EPOCH":"2021-10-02T12:56:16.344384","ARG_OF_PERICENTER":"79.4855","MEAN_MOTION_DOT":"0.00001574"},{"TIME_SYSTEM":"UTC","REV_AT_EPOCH":"8593","ECCENTRICITY":"0.00015130","PERIOD":"95.644","MEAN_ELEMENT_THEORY":"SGP4","MEAN_MOTION":"15.05588275","REF_FRAME":"TEME","COUNTRY_CODE":"US","LAUNCH_DATE":"2020-03-18","OBJECT_ID":"2020-019F","GP_ID":"186049804","FILE":"3141323","SEMIMAJOR_AXIS":"6927.837","MEAN_ANOMALY":"289.3607","EPHEMERIS_TYPE":"0","NORAD_CAT_ID":"45365","INCLINATION":"53.0023","OBJECT_TYPE":"PAYLOAD","OBJECT_NAME":"STARLINK-1317","RA_OF_ASC_NODE":"215.2576","ELEMENT_SET_NO":"999","TLE_LINE1":"1 45365U 20019F   21275.54069610  .00000752  00000-0  70757-4 0  9997","TLE_LINE2":"2 45365  53.0023 215.2576 0001513  70.7544 289.3607 15.05588275 85939","DECAY_DATE":null,"CLASSIFICATION_TYPE":"U","CENTER_NAME":"EARTH","BSTAR":"0.00007075700000","PERIAPSIS":"548.654","APOAPSIS":"550.751","EPOCH":"2021-10-02T12:58:36.143040","RCS_SIZE":"LARGE","SITE":"AFETR","MEAN_MOTION_DDOT":"0.0000000000000","MEAN_MOTION_DOT":"0.00000752","ARG_OF_PERICENTER":"70.7544"},{"PERIOD":"95.592","REV_AT_EPOCH":"8570","ECCENTRICITY":"0.00012570","TIME_SYSTEM":"UTC","MEAN_MOTION":"15.06402861","MEAN_ELEMENT_THEORY":"SGP4","LAUNCH_DATE":"2020-03-18","COUNTRY_CODE":"US","REF_FRAME":"TEME","INCLINATION":"53.0529","OBJECT_TYPE":"PAYLOAD","NORAD_CAT_ID":"45366","EPHEMERIS_TYPE":"0","MEAN_ANOMALY":"293.4177","SEMIMAJOR_AXIS":"6925.340","GP_ID":"186051055","FILE":"3141323","OBJECT_ID":"2020-019G","CENTER_NAME":"EARTH","CLASSIFICATION_TYPE":"U","DECAY_DATE":null,"TLE_LINE2":"2 45366  53.0529 234.8651 0001257  66.6945 293.4177 15.06402861 85706","TLE_LINE1":"1 45366U 20019G   21275.62847380  .00002310  00000-0  17391-3 0  9991","ELEMENT_SET_NO":"999","RA_OF_ASC_NODE":"234.8651","OBJECT_NAME":"STARLINK-1262","PERIAPSIS":"546.334","BSTAR":"0.00017391000000","SITE":"AFETR","MEAN_MOTION_DDOT":"0.0000000000000","RCS_SIZE":"LARGE","EPOCH":"2021-10-02T15:05:00.136320","APOAPSIS":"548.075","ARG_OF_PERICENTER":"66.6945","MEAN_MOTION_DOT":"0.00002310"},{"GP_ID":"186050805","OBJECT_ID":"2020-019H","FILE":"3141323","SEMIMAJOR_AXIS":"6925.358","MEAN_ANOMALY":"300.0195","EPHEMERIS_TYPE":"0","NORAD_CAT_ID":"45367","OBJECT_TYPE":"PAYLOAD","INCLINATION":"53.0535","REF_FRAME":"TEME","COUNTRY_CODE":"US","LAUNCH_DATE":"2020-03-18","MEAN_ELEMENT_THEORY":"SGP4","MEAN_MOTION":"15.06396788","TIME_SYSTEM":"UTC","REV_AT_EPOCH":"8569","ECCENTRICITY":"0.00015090","PERIOD":"95.592","MEAN_MOTION_DOT":"0.00000268","ARG_OF_PERICENTER":"60.0944","EPOCH":"2021-10-02T14:01:17.513472","APOAPSIS":"548.268","RCS_SIZE":"LARGE","SITE":"AFETR","MEAN_MOTION_DDOT":"0.0000000000000","BSTAR":"0.00003689600000","PERIAPSIS":"546.178","OBJECT_NAME":"STARLINK-1273","RA_OF_ASC_NODE":"235.0742","ELEMENT_SET_NO":"999","TLE_LINE2":"2 45367  53.0535 235.0742 0001509  60.0944 300.0195 15.06396788 85698","TLE_LINE1":"1 45367U 20019H   21275.58423048  .00000268  00000-0  36896-4 0  9990","DECAY_DATE":null,"CLASSIFICATION_TYPE":"U","CENTER_NAME":"EARTH"},{"CLASSIFICATION_TYPE":"U","CENTER_NAME":"EARTH","DECAY_DATE":null,"TLE_LINE2":"2 45368  53.0533 234.9069 0001649  63.8194 296.2965 15.06408388 85703","TLE_LINE1":"1 45368U 20019J   21275.62108368  .00002362  00000-0  17739-3 0  9992","ELEMENT_SET_NO":"999","OBJECT_NAME":"STARLINK-1276","RA_OF_ASC_NODE":"234.9069","PERIAPSIS":"546.046","BSTAR":"0.00017739000000","SITE":"AFETR","MEAN_MOTION_DDOT":"0.0000000000000","RCS_SIZE":"LARGE","APOAPSIS":"548.330","EPOCH":"2021-10-02T14:54:21.629952","ARG_OF_PERICENTER":"63.8194","MEAN_MOTION_DOT":"0.00002362","PERIOD":"95.592","TIME_SYSTEM":"UTC","REV_AT_EPOCH":"8570","ECCENTRICITY":"0.00016490","MEAN_MOTION":"15.06408388","MEAN_ELEMENT_THEORY":"SGP4","LAUNCH_DATE":"2020-03-18","COUNTRY_CODE":"US","REF_FRAME":"TEME","NORAD_CAT_ID":"45368","OBJECT_TYPE":"PAYLOAD","INCLINATION":"53.0533","EPHEMERIS_TYPE":"0","MEAN_ANOMALY":"296.2965","SEMIMAJOR_AXIS":"6925.323","GP_ID":"186049554","FILE":"3141323","OBJECT_ID":"2020-019J"},{"RA_OF_ASC_NODE":"234.9083","OBJECT_NAME":"STARLINK-1277","ELEMENT_SET_NO":"999","TLE_LINE1":"1 45369U 20019K   21275.62015080 -.00000015  00000-0  17898-4 0  9992","TLE_LINE2":"2 45369  53.0539 234.9083 0001503  71.3748 288.7404 15.06394412 85700","DECAY_DATE":null,"CENTER_NAME":"EARTH","CLASSIFICATION_TYPE":"U","BSTAR":"0.00001789800000","PERIAPSIS":"546.190","APOAPSIS":"548.272","EPOCH":"2021-10-02T14:53:01.029120","RCS_SIZE":"LARGE","SITE":"AFETR","MEAN_MOTION_DDOT":"0.0000000000000","MEAN_MOTION_DOT":"-0.00000015","ARG_OF_PERICENTER":"71.3748","REV_AT_EPOCH":"8570","ECCENTRICITY":"0.00015030","TIME_SYSTEM":"UTC","PERIOD":"95.592","MEAN_ELEMENT_THEORY":"SGP4","MEAN_MOTION":"15.06394412","REF_FRAME":"TEME","COUNTRY_CODE":"US","LAUNCH_DATE":"2020-03-18","OBJECT_ID":"2020-019K","GP_ID":"186050304","FILE":"3141323","SEMIMAJOR_AXIS":"6925.366","EPHEMERIS_TYPE":"0","MEAN_ANOMALY":"288.7404","OBJECT_TYPE":"PAYLOAD","INCLINATION":"53.0539","NORAD_CAT_ID":"45369"},{"MEAN_MOTION_DOT":"0.00000678","ARG_OF_PERICENTER":"66.4949","APOAPSIS":"548.325","EPOCH":"2021-10-02T14:38:27.111264","MEAN_MOTION_DDOT":"0.0000000000000","SITE":"AFETR","RCS_SIZE":"LARGE","BSTAR":"0.00006442200000","PERIAPSIS":"546.091","ELEMENT_SET_NO":"999","RA_OF_ASC_NODE":"234.9474","OBJECT_NAME":"STARLINK-1281","CENTER_NAME":"EARTH","CLASSIFICATION_TYPE":"U","DECAY_DATE":null,"TLE_LINE2":"2 45370  53.0536 234.9474 0001613  66.4949 293.6209 15.06401876 85704","TLE_LINE1":"1 45370U 20019L   21275.61003601  .00000678  00000-0  64422-4 0  9998","SEMIMAJOR_AXIS":"6925.343","GP_ID":"186050555","OBJECT_ID":"2020-019L","FILE":"3141323","INCLINATION":"53.0536","OBJECT_TYPE":"PAYLOAD","NORAD_CAT_ID":"45370","EPHEMERIS_TYPE":"0","MEAN_ANOMALY":"293.6209","REF_FRAME":"TEME","LAUNCH_DATE":"2020-03-18","COUNTRY_CODE":"US","MEAN_MOTION":"15.06401876","MEAN_ELEMENT_THEORY":"SGP4","REV_AT_EPOCH":"8570","ECCENTRICITY":"0.00016130","TIME_SYSTEM":"UTC","PERIOD":"95.592"},{"RCS_SIZE":"LARGE","SITE":"AFETR","MEAN_MOTION_DDOT":"0.0000000000000","APOAPSIS":"548.144","EPOCH":"2021-10-02T07:23:12.781248","ARG_OF_PERICENTER":"52.6689","MEAN_MOTION_DOT":"0.00000092","TLE_LINE1":"1 45371U 20019M   21275.30778682  .00000092  00000-0  25038-4 0  9993","TLE_LINE2":"2 45371  53.0517 236.3142 0001343  52.6689 307.4422 15.06399894 85651","DECAY_DATE":null,"CENTER_NAME":"EARTH","CLASSIFICATION_TYPE":"U","RA_OF_ASC_NODE":"236.3142","OBJECT_NAME":"STARLINK-1287","ELEMENT_SET_NO":"999","PERIAPSIS":"546.284","BSTAR":"0.00002503800000","COUNTRY_CODE":"US","LAUNCH_DATE":"2020-03-18","REF_FRAME":"TEME","EPHEMERIS_TYPE":"0","MEAN_ANOMALY":"307.4422","OBJECT_TYPE":"PAYLOAD","INCLINATION":"53.0517","NORAD_CAT_ID":"45371","GP_ID":"186051306","OBJECT_ID":"2020-019M","FILE":"3141323","SEMIMAJOR_AXIS":"6925.349","PERIOD":"95.592","ECCENTRICITY":"0.00013430","REV_AT_EPOCH":"8565","TIME_SYSTEM":"UTC","MEAN_ELEMENT_THEORY":"SGP4","MEAN_MOTION":"15.06399894"},{"PERIOD":"95.592","REV_AT_EPOCH":"8569","ECCENTRICITY":"0.00014840","TIME_SYSTEM":"UTC","MEAN_MOTION":"15.06401737","MEAN_ELEMENT_THEORY":"SGP4","LAUNCH_DATE":"2020-03-18","COUNTRY_CODE":"US","REF_FRAME":"TEME","OBJECT_TYPE":"PAYLOAD","INCLINATION":"53.0540","NORAD_CAT_ID":"45372","EPHEMERIS_TYPE":"0","MEAN_ANOMALY":"300.1209","SEMIMAJOR_AXIS":"6925.343","FILE":"3141323","GP_ID":"186050054","OBJECT_ID":"2020-019N","CENTER_NAME":"EARTH","CLASSIFICATION_TYPE":"U","TLE_LINE2":"2 45372  53.0540 235.0567 0001484  59.9927 300.1209 15.06401737 85693","TLE_LINE1":"1 45372U 20019N   21275.58792000  .00000162  00000-0  29749-4 0  9995","DECAY_DATE":null,"ELEMENT_SET_NO":"999","RA_OF_ASC_NODE":"235.0567","OBJECT_NAME":"STARLINK-1288","PERIAPSIS":"546.181","BSTAR":"0.00002974900000","MEAN_MOTION_DDOT":"0.0000000000000","SITE":"AFETR","RCS_SIZE":"LARGE","EPOCH":"2021-10-02T14:06:36.288000","APOAPSIS":"548.236","ARG_OF_PERICENTER":"59.9927","MEAN_MOTION_DOT":"0.00000162"}];
